[
  {
    "COMMENT": "GENERATED VIA SPACETRACK.ORG API",
    "ORIGINATOR": "18 SPCS",
    "NORAD_CAT_ID": "41335",
    "OBJECT_NAME": "SENTINEL 3A",
    "OBJECT_TYPE": "PAYLOAD",
    "CLASSIFICATION_TYPE": "U",
    "INTLDES": "16011A",
    "EPOCH": "2023-05-02 12:03:05",
    "EPOCH_MICROSECONDS": "860224",
    "MEAN_MOTION": "14.26735878",
    "ECCENTRICITY": "0.0001224",
    "INCLINATION": "98.6237",
    "RA_OF_ASC_NODE": "190.2205",
    "ARG_OF_PERICENTER": "105.1942",
    "MEAN_ANOMALY": "254.9374",
    "EPHEMERIS_TYPE": "0",
    "ELEMENT_SET_NO": "999",
    "REV_AT_EPOCH": "37526",
    "BSTAR": "0.000089104",
    "MEAN_MOTION_DOT": "0.00000172",
    "MEAN_MOTION_DDOT": "0",
    "FILE": "3898849",
    "TLE_LINE0": "0 SENTINEL 3A",
    "TLE_LINE1": "1 41335U 16011A   23122.50215116  .00000172  00000-0  89104-4 0  9992",
    "TLE_LINE2": "2 41335  98.6237 190.2205 0001224 105.1942 254.9374 14.26735878375261",
    "OBJECT_ID": "2016-011A",
    "OBJECT_NUMBER": "41335",
    "SEMIMAJOR_AXIS": "7180.799",
    "PERIOD": "100.930",
    "APOGEE": "803.543",
    "PERIGEE": "801.785",
    "DECAYED": "0"
  },
  {
    "COMMENT": "GENERATED VIA SPACETRACK.ORG API",
    "ORIGINATOR": "18 SPCS",
    "NORAD_CAT_ID": "41335",
    "OBJECT_NAME": "SENTINEL 3A",
    "OBJECT_TYPE": "PAYLOAD",
    "CLASSIFICATION_TYPE": "U",
    "INTLDES": "16011A",
    "EPOCH": "2023-05-02 12:03:05",
    "EPOCH_MICROSECONDS": "860224",
    "MEAN_MOTION": "14.26735878",
    "ECCENTRICITY": "0.0001224",
    "INCLINATION": "98.6237",
    "RA_OF_ASC_NODE": "190.2205",
    "ARG_OF_PERICENTER": "105.1942",
    "MEAN_ANOMALY": "254.9374",
    "EPHEMERIS_TYPE": "0",
    "ELEMENT_SET_NO": "999",
    "REV_AT_EPOCH": "37526",
    "BSTAR": "0.000089104",
    "MEAN_MOTION_DOT": "0.00000172",
    "MEAN_MOTION_DDOT": "0",
    "FILE": "3899068",
    "TLE_LINE0": "0 SENTINEL 3A",
    "TLE_LINE1": "1 41335U 16011A   23122.50215116  .00000172  00000-0  89104-4 0  9992",
    "TLE_LINE2": "2 41335  98.6237 190.2205 0001224 105.1942 254.9374 14.26735878375261",
    "OBJECT_ID": "2016-011A",
    "OBJECT_NUMBER": "41335",
    "SEMIMAJOR_AXIS": "7180.799",
    "PERIOD": "100.930",
    "APOGEE": "803.543",
    "PERIGEE": "801.785",
    "DECAYED": "0"
  },
  {
    "COMMENT": "GENERATED VIA SPACETRACK.ORG API",
    "ORIGINATOR": "18 SPCS",
    "NORAD_CAT_ID": "41335",
    "OBJECT_NAME": "SENTINEL 3A",
    "OBJECT_TYPE": "PAYLOAD",
    "CLASSIFICATION_TYPE": "U",
    "INTLDES": "16011A",
    "EPOCH": "2023-05-02 18:47:02",
    "EPOCH_MICROSECONDS": "760576",
    "MEAN_MOTION": "14.26736009",
    "ECCENTRICITY": "0.0001225",
    "INCLINATION": "98.6236",
    "RA_OF_ASC_NODE": "190.4969",
    "ARG_OF_PERICENTER": "105.1009",
    "MEAN_ANOMALY": "255.0307",
    "EPHEMERIS_TYPE": "0",
    "ELEMENT_SET_NO": "999",
    "REV_AT_EPOCH": "37530",
    "BSTAR": "0.000089974",
    "MEAN_MOTION_DOT": "0.00000174",
    "MEAN_MOTION_DDOT": "0",
    "FILE": "3899111",
    "TLE_LINE0": "0 SENTINEL 3A",
    "TLE_LINE1": "1 41335U 16011A   23122.78267084  .00000174  00000-0  89974-4 0  9990",
    "TLE_LINE2": "2 41335  98.6236 190.4969 0001225 105.1009 255.0307 14.26736009375304",
    "OBJECT_ID": "2016-011A",
    "OBJECT_NUMBER": "41335",
    "SEMIMAJOR_AXIS": "7180.799",
    "PERIOD": "100.930",
    "APOGEE": "803.543",
    "PERIGEE": "801.784",
    "DECAYED": "0"
  },
  {
    "COMMENT": "GENERATED VIA SPACETRACK.ORG API",
    "ORIGINATOR": "18 SPCS",
    "NORAD_CAT_ID": "41335",
    "OBJECT_NAME": "SENTINEL 3A",
    "OBJECT_TYPE": "PAYLOAD",
    "CLASSIFICATION_TYPE": "U",
    "INTLDES": "16011A",
    "EPOCH": "2023-05-02 20:28:01",
    "EPOCH_MICROSECONDS": "986528",
    "MEAN_MOTION": "14.26736019",
    "ECCENTRICITY": "0.0001225",
    "INCLINATION": "98.6236",
    "RA_OF_ASC_NODE": "190.566",
    "ARG_OF_PERICENTER": "105.1314",
    "MEAN_ANOMALY": "255.0002",
    "EPHEMERIS_TYPE": "0",
    "ELEMENT_SET_NO": "999",
    "REV_AT_EPOCH": "37531",
    "BSTAR": "0.000089382",
    "MEAN_MOTION_DOT": "0.00000173",
    "MEAN_MOTION_DDOT": "0",
    "FILE": "3899277",
    "TLE_LINE0": "0 SENTINEL 3A",
    "TLE_LINE1": "1 41335U 16011A   23122.85280077  .00000173  00000-0  89382-4 0  9997",
    "TLE_LINE2": "2 41335  98.6236 190.5660 0001225 105.1314 255.0002 14.26736019375316",
    "OBJECT_ID": "2016-011A",
    "OBJECT_NUMBER": "41335",
    "SEMIMAJOR_AXIS": "7180.799",
    "PERIOD": "100.930",
    "APOGEE": "803.543",
    "PERIGEE": "801.784",
    "DECAYED": "0"
  },
  {
    "COMMENT": "GENERATED VIA SPACETRACK.ORG API",
    "ORIGINATOR": "18 SPCS",
    "NORAD_CAT_ID": "41335",
    "OBJECT_NAME": "SENTINEL 3A",
    "OBJECT_TYPE": "PAYLOAD",
    "CLASSIFICATION_TYPE": "U",
    "INTLDES": "16011A",
    "EPOCH": "2023-05-03 01:30:59",
    "EPOCH_MICROSECONDS": "659200",
    "MEAN_MOTION": "14.26736125",
    "ECCENTRICITY": "0.0001226",
    "INCLINATION": "98.6236",
    "RA_OF_ASC_NODE": "190.7734",
    "ARG_OF_PERICENTER": "105.3569",
    "MEAN_ANOMALY": "254.7747",
    "EPHEMERIS_TYPE": "0",
    "ELEMENT_SET_NO": "999",
    "REV_AT_EPOCH": "37534",
    "BSTAR": "0.000090376",
    "MEAN_MOTION_DOT": "0.00000175",
    "MEAN_MOTION_DDOT": "0",
    "FILE": "3899373",
    "TLE_LINE0": "0 SENTINEL 3A",
    "TLE_LINE1": "1 41335U 16011A   23123.06319050  .00000175  00000-0  90376-4 0  9992",
    "TLE_LINE2": "2 41335  98.6236 190.7734 0001226 105.3569 254.7747 14.26736125375348",
    "OBJECT_ID": "2016-011A",
    "OBJECT_NUMBER": "41335",
    "SEMIMAJOR_AXIS": "7180.798",
    "PERIOD": "100.930",
    "APOGEE": "803.544",
    "PERIGEE": "801.783",
    "DECAYED": "0"
  },
  {
    "COMMENT": "GENERATED VIA SPACETRACK.ORG API",
    "ORIGINATOR": "18 SPCS",
    "NORAD_CAT_ID": "41335",
    "OBJECT_NAME": "SENTINEL 3A",
    "OBJECT_TYPE": "PAYLOAD",
    "CLASSIFICATION_TYPE": "U",
    "INTLDES": "16011A",
    "EPOCH": "2023-05-03 11:36:55",
    "EPOCH_MICROSECONDS": "15776",
    "MEAN_MOTION": "14.26736284",
    "ECCENTRICITY": "0.0001234",
    "INCLINATION": "98.6236",
    "RA_OF_ASC_NODE": "191.1881",
    "ARG_OF_PERICENTER": "105.042",
    "MEAN_ANOMALY": "255.0897",
    "EPHEMERIS_TYPE": "0",
    "ELEMENT_SET_NO": "999",
    "REV_AT_EPOCH": "37540",
    "BSTAR": "0.000091123",
    "MEAN_MOTION_DOT": "0.00000177",
    "MEAN_MOTION_DDOT": "0",
    "FILE": "3899606",
    "TLE_LINE0": "0 SENTINEL 3A",
    "TLE_LINE1": "1 41335U 16011A   23123.48397009  .00000177  00000-0  91123-4 0  9991",
    "TLE_LINE2": "2 41335  98.6236 191.1881 0001234 105.0420 255.0897 14.26736284375401",
    "OBJECT_ID": "2016-011A",
    "OBJECT_NUMBER": "41335",
    "SEMIMAJOR_AXIS": "7180.798",
    "PERIOD": "100.930",
    "APOGEE": "803.549",
    "PERIGEE": "801.777",
    "DECAYED": "0"
  },
  {
    "COMMENT": "GENERATED VIA SPACETRACK.ORG API",
    "ORIGINATOR": "18 SPCS",
    "NORAD_CAT_ID": "41335",
    "OBJECT_NAME": "SENTINEL 3A",
    "OBJECT_TYPE": "PAYLOAD",
    "CLASSIFICATION_TYPE": "U",
    "INTLDES": "16011A",
    "EPOCH": "2023-05-03 13:17:54",
    "EPOCH_MICROSECONDS": "236544",
    "MEAN_MOTION": "14.26736295",
    "ECCENTRICITY": "0.0001234",
    "INCLINATION": "98.6236",
    "RA_OF_ASC_NODE": "191.2572",
    "ARG_OF_PERICENTER": "105.1219",
    "MEAN_ANOMALY": "255.0098",
    "EPHEMERIS_TYPE": "0",
    "ELEMENT_SET_NO": "999",
    "REV_AT_EPOCH": "37541",
    "BSTAR": "0.00008823",
    "MEAN_MOTION_DOT": "0.0000017",
    "MEAN_MOTION_DDOT": "0",
    "FILE": "3899966",
    "TLE_LINE0": "0 SENTINEL 3A",
    "TLE_LINE1": "1 41335U 16011A   23123.55409996  .00000170  00000-0  88230-4 0  9996",
    "TLE_LINE2": "2 41335  98.6236 191.2572 0001234 105.1219 255.0098 14.26736295375412",
    "OBJECT_ID": "2016-011A",
    "OBJECT_NUMBER": "41335",
    "SEMIMAJOR_AXIS": "7180.798",
    "PERIOD": "100.930",
    "APOGEE": "803.549",
    "PERIGEE": "801.777",
    "DECAYED": "0"
  },
  {
    "COMMENT": "GENERATED VIA SPACETRACK.ORG API",
    "ORIGINATOR": "18 SPCS",
    "NORAD_CAT_ID": "41335",
    "OBJECT_NAME": "SENTINEL 3A",
    "OBJECT_TYPE": "PAYLOAD",
    "CLASSIFICATION_TYPE": "U",
    "INTLDES": "16011A",
    "EPOCH": "2023-05-03 20:01:51",
    "EPOCH_MICROSECONDS": "129120",
    "MEAN_MOTION": "14.26736385",
    "ECCENTRICITY": "0.0001237",
    "INCLINATION": "98.6235",
    "RA_OF_ASC_NODE": "191.5337",
    "ARG_OF_PERICENTER": "104.977",
    "MEAN_ANOMALY": "255.1548",
    "EPHEMERIS_TYPE": "0",
    "ELEMENT_SET_NO": "999",
    "REV_AT_EPOCH": "37545",
    "BSTAR": "0.000086346",
    "MEAN_MOTION_DOT": "0.00000165",
    "MEAN_MOTION_DDOT": "0",
    "FILE": "3900086",
    "TLE_LINE0": "0 SENTINEL 3A",
    "TLE_LINE1": "1 41335U 16011A   23123.83461955  .00000165  00000-0  86346-4 0  9990",
    "TLE_LINE2": "2 41335  98.6235 191.5337 0001237 104.9770 255.1548 14.26736385375450",
    "OBJECT_ID": "2016-011A",
    "OBJECT_NUMBER": "41335",
    "SEMIMAJOR_AXIS": "7180.798",
    "PERIOD": "100.930",
    "APOGEE": "803.551",
    "PERIGEE": "801.774",
    "DECAYED": "0"
  }
]